STARLINK-35727          
1 66281U 25247S   26068.57891525  .00015616  00000+0  53868-3 0  9998
2 66281  53.1586 192.1730 0001461  32.0349 328.0740 15.30173698 21010
KUIPER-00223            
1 67783U 26030V   26068.72136600  .00030225  00000+0  90645-3 0  9997
2 67783  51.8827 219.2782 0012824  59.0052 301.2192 15.34146210  5092
